ORBCOMM-X               
1 21576U 91050C   24298.42675225  .00001079  00000+0  33620-3 0  9997
2 21576  98.3759   3.5011 0003922 162.5156 197.6169 14.42841754748116
ORBCOMM FM01            
1 23545U 95017A   24298.38606984  .00016864  00000+0  20210-2 0  9991
2 23545  69.9658 299.8277 0008290 312.6801  47.3652 14.84103059577447
ORBCOMM FM02            
1 23546U 95017B   24298.45009367  .00015742  00000+0  18949-2 0  9992
2 23546  69.9683 319.3299 0010319 312.0007  48.0265 14.83928729577092
ORBCOMM FM08            
1 25112U 97084A   24298.50570306  .00005908  00000+0  17523-2 0  9991
2 25112  45.0145  57.8878 0007040 155.4795 204.6392 14.43987821407286
ORBCOMM FM10            
1 25113U 97084B   24298.52544730  .00005327  00000+0  15890-2 0  9996
2 25113  45.0155  59.8086 0004040 131.4243 228.6955 14.43857770582431
ORBCOMM FM11            
1 25114U 97084C   24298.56127791  .00005085  00000+0  15245-2 0  9990
2 25114  45.0143  59.8762 0004831 127.8484 232.2804 14.43668865407406
ORBCOMM FM12            
1 25115U 97084D   24298.52539868  .00005446  00000+0  16306-2 0  9999
2 25115  45.0149  59.8019 0003920 132.8583 227.2597 14.43638477407197
ORBCOMM FM09            
1 25116U 97084E   24298.40312549  .00004799  00000+0  14440-2 0  9999
2 25116  45.0152  61.1314 0004526 108.5070 251.6273 14.43575503407383
