<?xml version="1.0" encoding="UTF-8"?>
<ndm xmlns:xsi="http://www.w3.org/2001/XMLSchema-instance" xsi:noNamespaceSchemaLocation="https://sanaregistry.org/r/ndmxml_unqualified/ndmxml-2.0.0-master-2.0.xsd">
<omm id="CCSDS_OMM_VERS" version="2.0">
<header><CREATION_DATE/><ORIGINATOR/></header><body><segment><metadata><OBJECT_NAME>ORBCOMM-X</OBJECT_NAME><OBJECT_ID>1991-050C</OBJECT_ID><CENTER_NAME>EARTH</CENTER_NAME><REF_FRAME>TEME</REF_FRAME><TIME_SYSTEM>UTC</TIME_SYSTEM><MEAN_ELEMENT_THEORY>SGP4</MEAN_ELEMENT_THEORY></metadata><data><meanElements><EPOCH>2024-10-24T10:14:31.394400</EPOCH><MEAN_MOTION>14.42841754</MEAN_MOTION><ECCENTRICITY>.0003922</ECCENTRICITY><INCLINATION>98.3759</INCLINATION><RA_OF_ASC_NODE>3.5011</RA_OF_ASC_NODE><ARG_OF_PERICENTER>162.5156</ARG_OF_PERICENTER><MEAN_ANOMALY>197.6169</MEAN_ANOMALY></meanElements><tleParameters><EPHEMERIS_TYPE>0</EPHEMERIS_TYPE><CLASSIFICATION_TYPE>U</CLASSIFICATION_TYPE><NORAD_CAT_ID>21576</NORAD_CAT_ID><ELEMENT_SET_NO>999</ELEMENT_SET_NO><REV_AT_EPOCH>74811</REV_AT_EPOCH><BSTAR>.3362E-3</BSTAR><MEAN_MOTION_DOT>.1079E-4</MEAN_MOTION_DOT><MEAN_MOTION_DDOT>0</MEAN_MOTION_DDOT></tleParameters></data></segment></body></omm>
<omm id="CCSDS_OMM_VERS" version="2.0">
<header><CREATION_DATE/><ORIGINATOR/></header><body><segment><metadata><OBJECT_NAME>ORBCOMM FM01</OBJECT_NAME><OBJECT_ID>1995-017A</OBJECT_ID><CENTER_NAME>EARTH</CENTER_NAME><REF_FRAME>TEME</REF_FRAME><TIME_SYSTEM>UTC</TIME_SYSTEM><MEAN_ELEMENT_THEORY>SGP4</MEAN_ELEMENT_THEORY></metadata><data><meanElements><EPOCH>2024-10-24T09:15:56.434176</EPOCH><MEAN_MOTION>14.84103059</MEAN_MOTION><ECCENTRICITY>.000829</ECCENTRICITY><INCLINATION>69.9658</INCLINATION><RA_OF_ASC_NODE>299.8277</RA_OF_ASC_NODE><ARG_OF_PERICENTER>312.6801</ARG_OF_PERICENTER><MEAN_ANOMALY>47.3652</MEAN_ANOMALY></meanElements><tleParameters><EPHEMERIS_TYPE>0</EPHEMERIS_TYPE><CLASSIFICATION_TYPE>U</CLASSIFICATION_TYPE><NORAD_CAT_ID>23545</NORAD_CAT_ID><ELEMENT_SET_NO>999</ELEMENT_SET_NO><REV_AT_EPOCH>57744</REV_AT_EPOCH><BSTAR>.2021E-2</BSTAR><MEAN_MOTION_DOT>.16864E-3</MEAN_MOTION_DOT><MEAN_MOTION_DDOT>0</MEAN_MOTION_DDOT></tleParameters></data></segment></body></omm>
<omm id="CCSDS_OMM_VERS" version="2.0">
<header><CREATION_DATE/><ORIGINATOR/></header><body><segment><metadata><OBJECT_NAME>ORBCOMM FM02</OBJECT_NAME><OBJECT_ID>1995-017B</OBJECT_ID><CENTER_NAME>EARTH</CENTER_NAME><REF_FRAME>TEME</REF_FRAME><TIME_SYSTEM>UTC</TIME_SYSTEM><MEAN_ELEMENT_THEORY>SGP4</MEAN_ELEMENT_THEORY></metadata><data><meanElements><EPOCH>2024-10-24T10:48:08.093088</EPOCH><MEAN_MOTION>14.83928729</MEAN_MOTION><ECCENTRICITY>.0010319</ECCENTRICITY><INCLINATION>69.9683</INCLINATION><RA_OF_ASC_NODE>319.3299</RA_OF_ASC_NODE><ARG_OF_PERICENTER>312.0007</ARG_OF_PERICENTER><MEAN_ANOMALY>48.0265</MEAN_ANOMALY></meanElements><tleParameters><EPHEMERIS_TYPE>0</EPHEMERIS_TYPE><CLASSIFICATION_TYPE>U</CLASSIFICATION_TYPE><NORAD_CAT_ID>23546</NORAD_CAT_ID><ELEMENT_SET_NO>999</ELEMENT_SET_NO><REV_AT_EPOCH>57709</REV_AT_EPOCH><BSTAR>.18949E-2</BSTAR><MEAN_MOTION_DOT>.15742E-3</MEAN_MOTION_DOT><MEAN_MOTION_DDOT>0</MEAN_MOTION_DDOT></tleParameters></data></segment></body></omm>
<omm id="CCSDS_OMM_VERS" version="2.0">
<header><CREATION_DATE/><ORIGINATOR/></header><body><segment><metadata><OBJECT_NAME>ORBCOMM FM08</OBJECT_NAME><OBJECT_ID>1997-084A</OBJECT_ID><CENTER_NAME>EARTH</CENTER_NAME><REF_FRAME>TEME</REF_FRAME><TIME_SYSTEM>UTC</TIME_SYSTEM><MEAN_ELEMENT_THEORY>SGP4</MEAN_ELEMENT_THEORY></metadata><data><meanElements><EPOCH>2024-10-24T12:08:12.744384</EPOCH><MEAN_MOTION>14.43987821</MEAN_MOTION><ECCENTRICITY>.000704</ECCENTRICITY><INCLINATION>45.0145</INCLINATION><RA_OF_ASC_NODE>57.8878</RA_OF_ASC_NODE><ARG_OF_PERICENTER>155.4795</ARG_OF_PERICENTER><MEAN_ANOMALY>204.6392</MEAN_ANOMALY></meanElements><tleParameters><EPHEMERIS_TYPE>0</EPHEMERIS_TYPE><CLASSIFICATION_TYPE>U</CLASSIFICATION_TYPE><NORAD_CAT_ID>25112</NORAD_CAT_ID><ELEMENT_SET_NO>999</ELEMENT_SET_NO><REV_AT_EPOCH>40728</REV_AT_EPOCH><BSTAR>.17523E-2</BSTAR><MEAN_MOTION_DOT>.5908E-4</MEAN_MOTION_DOT><MEAN_MOTION_DDOT>0</MEAN_MOTION_DDOT></tleParameters></data></segment></body></omm>
<omm id="CCSDS_OMM_VERS" version="2.0">
<header><CREATION_DATE/><ORIGINATOR/></header><body><segment><metadata><OBJECT_NAME>ORBCOMM FM10</OBJECT_NAME><OBJECT_ID>1997-084B</OBJECT_ID><CENTER_NAME>EARTH</CENTER_NAME><REF_FRAME>TEME</REF_FRAME><TIME_SYSTEM>UTC</TIME_SYSTEM><MEAN_ELEMENT_THEORY>SGP4</MEAN_ELEMENT_THEORY></metadata><data><meanElements><EPOCH>2024-10-24T12:36:38.646720</EPOCH><MEAN_MOTION>14.43857770</MEAN_MOTION><ECCENTRICITY>.000404</ECCENTRICITY><INCLINATION>45.0155</INCLINATION><RA_OF_ASC_NODE>59.8086</RA_OF_ASC_NODE><ARG_OF_PERICENTER>131.4243</ARG_OF_PERICENTER><MEAN_ANOMALY>228.6955</MEAN_ANOMALY></meanElements><tleParameters><EPHEMERIS_TYPE>0</EPHEMERIS_TYPE><CLASSIFICATION_TYPE>U</CLASSIFICATION_TYPE><NORAD_CAT_ID>25113</NORAD_CAT_ID><ELEMENT_SET_NO>999</ELEMENT_SET_NO><REV_AT_EPOCH>58243</REV_AT_EPOCH><BSTAR>.1589E-2</BSTAR><MEAN_MOTION_DOT>.5327E-4</MEAN_MOTION_DOT><MEAN_MOTION_DDOT>0</MEAN_MOTION_DDOT></tleParameters></data></segment></body></omm>
<omm id="CCSDS_OMM_VERS" version="2.0">
<header><CREATION_DATE/><ORIGINATOR/></header><body><segment><metadata><OBJECT_NAME>ORBCOMM FM11</OBJECT_NAME><OBJECT_ID>1997-084C</OBJECT_ID><CENTER_NAME>EARTH</CENTER_NAME><REF_FRAME>TEME</REF_FRAME><TIME_SYSTEM>UTC</TIME_SYSTEM><MEAN_ELEMENT_THEORY>SGP4</MEAN_ELEMENT_THEORY></metadata><data><meanElements><EPOCH>2024-10-24T13:28:14.411424</EPOCH><MEAN_MOTION>14.43668865</MEAN_MOTION><ECCENTRICITY>.0004831</ECCENTRICITY><INCLINATION>45.0143</INCLINATION><RA_OF_ASC_NODE>59.8762</RA_OF_ASC_NODE><ARG_OF_PERICENTER>127.8484</ARG_OF_PERICENTER><MEAN_ANOMALY>232.2804</MEAN_ANOMALY></meanElements><tleParameters><EPHEMERIS_TYPE>0</EPHEMERIS_TYPE><CLASSIFICATION_TYPE>U</CLASSIFICATION_TYPE><NORAD_CAT_ID>25114</NORAD_CAT_ID><ELEMENT_SET_NO>999</ELEMENT_SET_NO><REV_AT_EPOCH>40740</REV_AT_EPOCH><BSTAR>.15245E-2</BSTAR><MEAN_MOTION_DOT>.5085E-4</MEAN_MOTION_DOT><MEAN_MOTION_DDOT>0</MEAN_MOTION_DDOT></tleParameters></data></segment></body></omm>
<omm id="CCSDS_OMM_VERS" version="2.0">
<header><CREATION_DATE/><ORIGINATOR/></header><body><segment><metadata><OBJECT_NAME>ORBCOMM FM12</OBJECT_NAME><OBJECT_ID>1997-084D</OBJECT_ID><CENTER_NAME>EARTH</CENTER_NAME><REF_FRAME>TEME</REF_FRAME><TIME_SYSTEM>UTC</TIME_SYSTEM><MEAN_ELEMENT_THEORY>SGP4</MEAN_ELEMENT_THEORY></metadata><data><meanElements><EPOCH>2024-10-24T12:36:34.445952</EPOCH><MEAN_MOTION>14.43638477</MEAN_MOTION><ECCENTRICITY>.000392</ECCENTRICITY><INCLINATION>45.0149</INCLINATION><RA_OF_ASC_NODE>59.8019</RA_OF_ASC_NODE><ARG_OF_PERICENTER>132.8583</ARG_OF_PERICENTER><MEAN_ANOMALY>227.2597</MEAN_ANOMALY></meanElements><tleParameters><EPHEMERIS_TYPE>0</EPHEMERIS_TYPE><CLASSIFICATION_TYPE>U</CLASSIFICATION_TYPE><NORAD_CAT_ID>25115</NORAD_CAT_ID><ELEMENT_SET_NO>999</ELEMENT_SET_NO><REV_AT_EPOCH>40719</REV_AT_EPOCH><BSTAR>.16306E-2</BSTAR><MEAN_MOTION_DOT>.5446E-4</MEAN_MOTION_DOT><MEAN_MOTION_DDOT>0</MEAN_MOTION_DDOT></tleParameters></data></segment></body></omm>
<omm id="CCSDS_OMM_VERS" version="2.0">
<header><CREATION_DATE/><ORIGINATOR/></header><body><segment><metadata><OBJECT_NAME>ORBCOMM FM09</OBJECT_NAME><OBJECT_ID>1997-084E</OBJECT_ID><CENTER_NAME>EARTH</CENTER_NAME><REF_FRAME>TEME</REF_FRAME><TIME_SYSTEM>UTC</TIME_SYSTEM><MEAN_ELEMENT_THEORY>SGP4</MEAN_ELEMENT_THEORY></metadata><data><meanElements><EPOCH>2024-10-24T09:40:30.042336</EPOCH><MEAN_MOTION>14.43575503</MEAN_MOTION><ECCENTRICITY>.0004526</ECCENTRICITY><INCLINATION>45.0152</INCLINATION><RA_OF_ASC_NODE>61.1314</RA_OF_ASC_NODE><ARG_OF_PERICENTER>108.5070</ARG_OF_PERICENTER><MEAN_ANOMALY>251.6273</MEAN_ANOMALY></meanElements><tleParameters><EPHEMERIS_TYPE>0</EPHEMERIS_TYPE><CLASSIFICATION_TYPE>U</CLASSIFICATION_TYPE><NORAD_CAT_ID>25116</NORAD_CAT_ID><ELEMENT_SET_NO>999</ELEMENT_SET_NO><REV_AT_EPOCH>40738</REV_AT_EPOCH><BSTAR>.1444E-2</BSTAR><MEAN_MOTION_DOT>.4799E-4</MEAN_MOTION_DOT><MEAN_MOTION_DDOT>0</MEAN_MOTION_DDOT></tleParameters></data></segment></body></omm>

</ndm>
